SatCatId,ObjectName,LaunchYear,OrbitalPeriod,LaunchMass,StatusCode,Inclination,Status,UcsData,OrbitClassEstimated,LaunchSiteCountry,Owner,UseType,Purpose,LaunchVehicleClass,TLE1,TLE2,MeanMotion,Eccentricity,OrbitClass
23444,COSMOS 2302,1994,114.17,-1.0,UNK,82.57,Inactive,0,LEO,Russia,Russia/USSR,Unknown,Unknown,Unknown,1 23444U 94086D   24253.58335269  .00000060  00000+0  28285-3 0  9994,2 23444  82.5697  19.1435 0007032 195.5077 175.6029 12.61247408367433,12.61247408,0.0007032,LEO
23445,COSMOS 2303,1994,114.24,-1.0,UNK,82.58,Inactive,0,LEO,Russia,Russia/USSR,Unknown,Unknown,Unknown,1 23445U 94086E   24253.51146347  .00000063  00000+0  30006-3 0  9992,2 23445  82.5761  36.8623 0010761 221.7270 205.2732 12.60535644366634,12.60535644,0.0010761,LEO
23446,COSMOS 2304,1994,114.09,-1.0,UNK,82.58,Inactive,0,LEO,Russia,Russia/USSR,Unknown,Unknown,Unknown,1 23446U 94086F   24253.60587728  .00000074  00000+0  35719-3 0  9993,2 23446  82.5761  12.4577 0004163 183.7486 187.9770 12.62177931368248,12.62177931,0.0004163,LEO
23448,RADUGA 32,1994,1436.25,-1.0,-,14.48,Inactive,0,GSO,Kazakhstan,Russia/USSR,Unknown,Unknown,Unknown,1 23448U 94087A   24253.30605146 -.00000113  00000+0  00000+0 0  9994,2 23448  14.4788 355.8074 0007803 224.0038 315.7013  1.00261308126408,1.00261308,0.0007803,GSO
15259,COSMOS 1593 [GLONASS],1984,675.72,-1.0,-,64.51,Inactive,0,MEO,Kazakhstan,Russia/USSR,Unknown,Unknown,Unknown,1 15259U 84095A   24251.47618517  .00000022  00000+0  00000+0 0  9993,2 15259  64.5071  95.0633 0023950 210.9945 333.0698  2.13104885264716,2.13104885,0.002395,MEO
15260,COSMOS 1594 [GLONASS],1984,677.21,-1.0,-,64.45,Inactive,0,MEO,Kazakhstan,Russia/USSR,Unknown,Unknown,Unknown,1 15260U 84095B   24253.48407728  .00000029  00000+0  00000+0 0  9995,2 15260  64.4458  96.6801 0005176 185.6093  12.2194  2.12637125310763,2.12637125,0.0005176,MEO
15261,COSMOS 1595 [GLONASS],1984,675.73,-1.0,-,64.45,Inactive,0,MEO,Kazakhstan,Russia/USSR,Unknown,Unknown,Unknown,1 15261U 84095C   24248.36718640  .00000028  00000+0  00000+0 0  9994,2 15261  64.4459  93.6403 0047578 214.7994 338.3826  2.13102282285651,2.13102282,0.0047578,MEO
23455,NOAA 14,1994,101.81,-1.0,-,98.44,Inactive,0,LEO,USA,USA,Unknown,Unknown,Unknown,1 23455U 94089A   24253.55484386  .00000408  00000+0  23414-3 0  9996,2 23455  98.4392 244.9078 0010299 134.7232 225.4782 14.14441787532161,14.14441787,0.0010299,LEO
15267,COSMOS 1596,1984,717.72,-1.0,UNK,65.81,Inactive,0,MEO,Russia,Russia/USSR,Unknown,Unknown,Unknown,1 15267U 84096A   24253.16185035 -.00000595  00000+0  00000+0 0  9991,2 15267  65.8096 187.2312 6423729  33.6082 354.0734  2.00635217293057,2.00635217,0.6423729,MEO
23461,INTELSAT 704 (IS-704),1995,1451.94,-1.0,-,10.72,Inactive,0,GSO,USA,INTELSAT,Unknown,Unknown,Unknown,1 23461U 95001A   24253.43382814  .00000005  00000+0  00000+0 0  9993,2 23461  10.7166  40.5259 0016405 140.0992  48.7574  0.99177818108076,0.99177818,0.0016405,GSO
15271,NAVSTAR 10 (USA 5),1984,747.59,-1.0,-,62.65,Inactive,0,MEO,USA,USA,Unknown,Unknown,Unknown,1 15271U 84097A   24251.37700583 -.00000041  00000+0  00000+0 0  9995,2 15271  62.6485 310.4400 0145057 227.9075 210.8009  1.92619064283848,1.92619064,0.0145057,MEO
23463,TSIKADA,1995,104.91,-1.0,UNK,82.93,Inactive,0,LEO,Russia,Russia/USSR,Unknown,Unknown,Unknown,1 23463U 95002A   24253.63110191  .00000152  00000+0  14827-3 0  9994,2 23463  82.9276 133.3325 0039797 131.3069 290.8060 13.72644201483743,13.72644201,0.0039797,LEO
23464,ASTRID 1,1995,104.89,-1.0,UNK,82.93,Inactive,0,LEO,Russia,Sweden,Unknown,Unknown,Unknown,1 23464U 95002B   24253.43729008  .00000305  00000+0  31290-3 0  9999,2 23464  82.9282 136.4235 0041416 141.7942 218.6161 13.72886351483420,13.72886351,0.0041416,LEO
23465,FAISAT,1995,104.96,-1.0,UNK,82.93,Inactive,0,LEO,Russia,USA,Unknown,Unknown,Unknown,1 23465U 95002C   24253.21366185  .00000098  00000+0  90902-4 0  9994,2 23465  82.9286 140.3651 0037865 158.3848 318.3808 13.71973060483275,13.7197306,0.0037865,LEO
7094,COSMOS 628,1974,104.66,-1.0,UNK,82.95,Inactive,0,LEO,Russia,Russia/USSR,Unknown,Unknown,Unknown,1 07094U 74001A   24253.61370789  .00000137  00000+0  12471-3 0  9997,2 07094  82.9548 299.7645 0037456 144.2981 326.6734 13.75877658541800,13.75877658,0.0037456,LEO
15292,COSMOS 1598,1984,104.87,-1.0,UNK,82.94,Inactive,0,LEO,Russia,Russia/USSR,Unknown,Unknown,Unknown,1 15292U 84100A   24253.62063900  .00000131  00000+0  12463-3 0  9997,2 15292  82.9430 289.1159 0032955  26.6785  86.5729 13.73108698  3398,13.73108698,0.0032955,LEO
15308,GALAXY 3 (G-3),1984,1442.22,-1.0,-,14.46,Inactive,0,GSO,USA,USA,Unknown,Unknown,Unknown,1 15308U 84101A   24251.39400522 -.00000251  00000+0  00000+0 0  9997,2 15308  14.4599 349.9421 0003143  74.9393  37.7121  0.99846087 40016,0.99846087,0.0003143,GSO
23511,COSMOS 2307 [GLONASS],1995,675.72,-1.0,-,64.43,Inactive,0,MEO,Kazakhstan,Russia/USSR,Unknown,Unknown,Unknown,1 23511U 95009A   24251.32790634 -.00000056  00000+0  00000+0 0  9993,2 23511  64.4309 324.1276 0005776 142.4370 277.4850  2.13105332229399,2.13105332,0.0005776,MEO
23512,COSMOS 2308 [GLONASS],1995,675.74,-1.0,-,64.42,Inactive,0,MEO,Kazakhstan,Russia/USSR,Unknown,Unknown,Unknown,1 23512U 95009B   24252.57479767 -.00000052  00000+0  00000+0 0  9999,2 23512  64.4180 323.9808 0005878 307.6155  47.3123  2.13099832229422,2.13099832,0.0005878,MEO
23513,COSMOS 2309 [GLONASS],1995,675.89,-1.0,-,64.43,Inactive,0,MEO,Kazakhstan,Russia/USSR,Unknown,Unknown,Unknown,1 23513U 95009C   24253.63720438 -.00000049  00000+0  00000+0 0  9998,2 23513  64.4249 324.1655 0036911 215.5734 125.5002  2.13052299229548,2.13052299,0.0036911,MEO
23522,HIMAWARI-5 (GMS-5),1995,1448.67,-1.0,-,14.04,Inactive,0,GSO,Japan,Japan,Unknown,Unknown,Unknown,1 23522U 95011B   24253.34476494  .00000011  00000+0  00000+0 0  9997,2 23522  14.0384   9.0347 0010277 142.9951 214.1357  0.99401670107172,0.9940167,0.0010277,GSO
15331,COSMOS 1602,1984,93.97,-1.0,UNK,82.53,Inactive,0,LEO,Russia,Russia/USSR,Unknown,Unknown,Unknown,1 15331U 84105A   24253.45053752  .00032960  00000+0  10444-2 0  9992,2 15331  82.5280 244.4036 0013013 116.6749 243.5827 15.32485446181840,15.32485446,0.0013013,LEO
15333,COSMOS 1603,1984,101.81,-1.0,UNK,71.03,Inactive,0,LEO,Kazakhstan,Russia/USSR,Unknown,Unknown,Unknown,1 15333U 84106A   24253.61455488 -.00000022  00000+0  13129-4 0  9995,2 15333  71.0279 320.5690 0018194 151.6980 208.5135 14.14359391 61451,14.14359391,0.0018194,LEO
23526,COSMOS 2310,1995,104.94,-1.0,UNK,82.94,Inactive,0,LEO,Russia,Russia/USSR,Unknown,Unknown,Unknown,1 23526U 95012A   24253.57425663  .00000190  00000+0  19154-3 0  9991,2 23526  82.9416 264.6442 0021001 287.8466 191.5026 13.72233099475372,13.72233099,0.0021001,LEO
23528,INTELSAT 705 (IS-705),1995,1454.94,-1.0,-,10.52,Inactive,0,GSO,USA,INTELSAT,Unknown,Unknown,Unknown,1 23528U 95013A   24253.59397580 -.00000144  00000+0  00000+0 0  9998,2 23528  10.5229  42.7109 0021815 100.6980 170.0956  0.98972766107140,0.98972766,0.0021815,GSO
23533,DMSP 5D-2 F13 (USA 109),1995,101.65,-1.0,-,98.82,Inactive,0,LEO,USA,USA,Unknown,Unknown,Unknown,1 23533U 95015A   24253.60215927  .00000949  00000+0  49777-3 0  9992,2 23533  98.8229 262.3943 0006594 189.7700 280.6462 14.16607375521771,14.16607375,0.0006594,LEO
23536,BRASILSAT B2,1995,1451.0,-1.0,-,11.07,Inactive,0,GSO,French Guiana,Brazil,Unknown,Unknown,Unknown,1 23536U 95016A   24253.55046223 -.00000306  00000+0  00000+0 0  9991,2 23536  11.0715  36.2413 0005025 152.9444 137.9511  0.99241896107683,0.99241896,0.0005025,GSO
23537,HOT BIRD 1,1995,1449.87,-1.0,-,12.28,Inactive,0,GSO,French Guiana,EUTELSAT,Unknown,Unknown,Unknown,1 23537U 95016B   24253.19146666 -.00000308  00000+0  00000+0 0  9996,2 23537  12.2790  27.2717 0005583 102.1229  75.4404  0.99319392107295,0.99319392,0.0005583,GSO
15350,COSMOS 1604,1984,717.36,-1.0,UNK,71.43,Inactive,0,MEO,Russia,Russia/USSR,Unknown,Unknown,Unknown,1 15350U 84107A   24251.07406614  .00000399  00000+0  00000+0 0  9995,2 15350  71.4269  25.9711 5611321 347.1263   2.8942  2.00735288292378,2.00735288,0.5611321,MEO
23545,ORBCOMM FM01,1995,97.13,-1.0,-,69.97,Inactive,0,LEO,Western Range Airspace,ORBCOMM,Unknown,Unknown,Unknown,1 23545U 95017A   24253.61005609  .00018686  00000+0  23243-2 0  9998,2 23545  69.9676  50.2917 0003857   9.1024 351.0196 14.82542843570803,14.82542843,0.0003857,LEO
23546,ORBCOMM FM02,1995,97.15,-1.0,-,69.97,Inactive,0,LEO,Western Range Airspace,ORBCOMM,Unknown,Unknown,Unknown,1 23546U 95017B   24253.59953971  .00019645  00000+0  24589-2 0  9990,2 23546  69.9685  69.9279 0005475  10.7101 349.4165 14.82263582570441,14.82263582,0.0005475,LEO
23547,ORBVIEW 1 (MICROLAB),1995,98.37,-1.0,UNK,69.98,Inactive,0,LEO,Western Range Airspace,USA,Unknown,Unknown,Unknown,1 23547U 95017C   24253.59979536  .00005937  00000+0  11446-2 0  9993,2 23547  69.9805 333.7857 0010050 198.7620 161.3152 14.63931257563661,14.63931257,0.001005,LEO
15359,COSMOS 1605,1984,104.7,-1.0,UNK,82.94,Inactive,0,LEO,Russia,Russia/USSR,Unknown,Unknown,Unknown,1 15359U 84109A   24253.56238758  .00000155  00000+0  14555-3 0  9998,2 15359  82.9353 270.8393 0045481 325.6719 151.3722 13.75326452  3082,13.75326452,0.0045481,LEO
23553,AMSC 1,1995,1455.9,2850.0,-,12.7,Inactive,1,GSO,USA,USA,Commercial,Communications,Atlas,1 23553U 95019A   24253.60465704  .00000044  00000+0  00000+0 0  9996,2 23553  12.6959  20.7885 0013496 275.4251 142.0923  0.98907732107702,0.98907732,0.0013496,GSO
15362,NOVA 3,1984,108.85,-1.0,UNK,90.11,Inactive,0,LEO,USA,USA,Unknown,Unknown,Unknown,1 15362U 84110A   24253.53943431  .00000160  00000+0  36013-3 0  9991,2 15362  90.1115  75.3513 0032685 152.4003 272.4709 13.22961150926276,13.2296115,0.0032685,LEO
15369,COSMOS 1606,1984,93.67,-1.0,UNK,82.52,Inactive,0,LEO,Russia,Russia/USSR,Unknown,Unknown,Unknown,1 15369U 84111A   24253.45680469  .00042768  00000+0  11600-2 0  9993,2 15369  82.5213  28.8021 0011004  49.3863 310.8336 15.37375442181518,15.37375442,0.0011004,LEO
